OBJECT_NAME,OBJECT_ID,EPOCH,MEAN_MOTION,ECCENTRICITY,INCLINATION,RA_OF_ASC_NODE,ARG_OF_PERICENTER,MEAN_ANOMALY,EPHEMERIS_TYPE,CLASSIFICATION_TYPE,NORAD_CAT_ID,ELEMENT_SET_NO,REV_AT_EPOCH,BSTAR,MEAN_MOTION_DOT,MEAN_MOTION_DDOT
ROCK,2024-149G,2026-05-13T04:54:44.452224,15.38660215,.00021506,97.3774,216.3458,57.7935,302.3518,0,U,60474,999,9688,.22440994E-3,.8487E-4,0
CONNECTA IOT-3,2024-149H,2026-05-13T12:02:07.101312,15.23272977,.0003926,97.3739,210.1485,51.9146,308.2444,0,U,60475,999,9652,.11313E-3,.2612E-4,0
QUBE,2024-149J,2026-05-13T03:57:07.479360,15.45565754,.0001717,97.3776,218.9699,40.0047,320.1328,0,U,60476,999,9705,.28776E-3,.13747E-3,0
WREN-1,2024-149L,2026-05-13T10:55:18.575040,15.40174200,.0004563,97.3768,217.2417,45.8118,314.3503,0,U,60478,999,9697,.28599E-3,.11398E-3,0
TOMORROW-S1,2024-149M,2026-05-13T12:41:43.123776,15.32219451,.0003139,97.3753,214.1242,44.5930,315.5564,0,U,60479,999,9678,.14689E-3,.4491E-4,0
FLOCK 4BE-18,2024-149N,2026-05-13T05:11:32.779104,15.40714322,.00038253,97.3730,216.6126,45.6577,314.4982,0,U,60480,999,9692,.23175728E-3,.9384E-4,0
FLOCK 4BE-7,2024-149P,2026-05-13T10:41:11.310720,15.38863755,.0003136,97.3760,216.2589,54.3555,305.7982,0,U,60481,999,9690,.33104E-3,.12651E-3,0
TOMORROW-S2,2024-149T,2026-05-13T04:02:06.854496,15.32226927,.00038995,97.3819,214.2206,60.4428,299.7202,0,U,60485,999,9672,.16071748E-3,.4923E-4,0
FLOCK 4BE-36,2024-149U,2026-05-13T12:46:38.704224,15.41614532,.0004122,97.3746,217.5767,55.3246,304.8389,0,U,60486,999,9701,.24382E-3,.10178E-3,0
FLOCK 4BE-25,2024-149V,2026-05-13T11:35:09.205152,15.37906996,.0002721,97.3800,216.4233,60.9704,299.1813,0,U,60487,999,9690,.23452E-3,.8658E-4,0
FLOCK 4BE-31,2024-149W,2026-05-13T04:50:44.352672,15.42727343,.00032303,97.3801,218.0080,66.0368,294.1217,0,U,60488,999,9698,.256446E-3,.11116E-3,0
FLOCK 4BE-20,2024-149X,2026-05-13T04:02:14.792064,15.37126804,.00042158,97.3698,215.0754,54.7335,305.4304,0,U,60489,999,9683,.26087155E-3,.9402E-4,0
FLOCK 4BE-23,2024-149Y,2026-05-13T11:24:59.666112,15.36768832,.0004136,97.3782,215.7406,61.1196,299.0463,0,U,60490,999,9686,.25902E-3,.9227E-4,0
FLOCK 4BE-15,2024-149Z,2026-05-13T05:34:21.011232,15.52237075,.0003796,97.3696,217.5035,142.8489,217.3027,0,U,60491,999,9699,.11102E-2,.67746E-3,0
FLOCK 4BE-17,2024-149AA,2026-05-13T04:20:04.513056,15.38739598,.00033832,97.3776,216.3028,54.1875,305.9684,0,U,60492,999,9687,.27105291E-3,.10299E-3,0
NUSAT-50 (NANCY ROMAN),2024-149AB,2026-05-13T04:01:27.904512,15.29233317,.00023944,97.3790,214.6847,349.1136,11.0052,0,U,60493,999,9677,.21854148E-3,.6123E-4,0
FLOCK 4BE-22,2024-149AC,2026-05-13T10:52:16.112064,15.40091852,.0004121,97.3735,216.7154,57.1853,302.9789,0,U,60494,999,9695,.24832E-3,.9857E-4,0
FLOCK 4BE-34,2024-149AD,2026-05-13T12:51:04.823136,15.40136837,.000445,97.3784,217.5980,66.2778,293.8935,0,U,60495,999,9699,.24186E-3,.9612E-4,0
TYCHE,2024-149AE,2026-05-13T12:14:33.324288,15.25828817,.0003727,97.3756,211.7918,64.0559,296.1063,0,U,60496,999,9661,.11442E-3,.2855E-4,0
FLOCK 4BE-32,2024-149AF,2026-05-13T04:47:28.648032,15.40930406,.0004375,97.3723,216.7832,63.6749,296.4947,0,U,60497,999,9694,.23185532E-3,.9456E-4,0
NUSAT-48 (HENRIETTA LEAVITT),2024-149AG,2026-05-13T05:34:04.662624,15.29845816,.0004889,97.3907,214.9108,56.1695,304.0010,0,U,60498,999,9679,.19697E-3,.5618E-4,0
FLOCK 4BE-30,2024-149AH,2026-05-13T04:30:09.961056,15.48711026,.0002252,97.3782,217.7585,162.6957,197.4371,0,U,60499,999,9634,.10656E-2,.57327E-3,0
NUSAT-49 (KLARA DAN VON NEUMANN),2024-149AJ,2026-05-13T05:05:04.719552,15.30245503,.00039393,97.3781,214.7369,72.3883,287.7788,0,U,60500,999,9678,.18245291E-3,.5263E-4,0
FLOCK 4BE-11,2024-149AK,2026-05-13T05:07:11.478720,15.41791458,.0004361,97.3701,216.9924,61.8115,298.3572,0,U,60501,999,9696,.24862E-3,.10443E-3,0
YAM-7,2024-149AN,2026-05-13T04:02:16.606464,15.31319486,.00048023,97.3787,213.5736,71.9678,288.2086,0,U,60504,999,9669,.16617023E-3,.495E-4,0
FLOCK 4BE-24,2024-149AP,2026-05-13T11:02:02.344704,15.41746287,.0004525,97.3719,217.4889,69.3967,290.7765,0,U,60505,999,9701,.27373E-3,.1149E-3,0
LUR-1,2024-149AQ,2026-05-13T04:26:34.359360,15.29632656,.00055941,97.3743,212.2793,78.0598,282.1269,0,U,60506,999,9662,.16507044E-3,.4665E-4,0
TANAGER-1,2024-149AR,2026-05-13T05:52:30.368352,15.44572197,.0006069,97.3208,227.3790,73.0961,287.0952,0,U,60507,999,9764,.19939E-3,.9182E-4,0
EAGLEEYE,2024-149AS,2026-05-13T04:38:32.054784,15.65194175,.00018349,97.3727,224.7668,49.6959,310.4461,0,U,60508,999,9745,.54095113E-3,.53585E-3,0
