ROCK                    
1 60474U 24149G   26133.20468116  .00008487  00000+0  22441-3 0  9996
2 60474  97.3774 216.3458 0002150  57.7935 302.3518 15.38660215 96883
CONNECTA IOT-3          
1 60475U 24149H   26133.50147108  .00002612  00000+0  11313-3 0  9995
2 60475  97.3739 210.1485 0003926  51.9146 308.2444 15.23272977 96521
QUBE                    
1 60476U 24149J   26133.16466990  .00013747  00000+0  28776-3 0  9993
2 60476  97.3776 218.9699 0001717  40.0047 320.1328 15.45565754 97056
WREN-1                  
1 60478U 24149L   26133.45507610  .00011398  00000+0  28599-3 0  9995
2 60478  97.3768 217.2417 0004563  45.8118 314.3503 15.40174200 96970
TOMORROW-S1             
1 60479U 24149M   26133.52897134  .00004491  00000+0  14689-3 0  9998
2 60479  97.3753 214.1242 0003139  44.5930 315.5564 15.32219451 96781
FLOCK 4BE-18            
1 60480U 24149N   26133.21635161  .00009384  00000+0  23176-3 0  9993
2 60480  97.3730 216.6126 0003825  45.6577 314.4982 15.40714322 96921
FLOCK 4BE-7             
1 60481U 24149P   26133.44526980  .00012651  00000+0  33104-3 0  9990
2 60481  97.3760 216.2589 0003136  54.3555 305.7982 15.38863755 96905
TOMORROW-S2             
1 60485U 24149T   26133.16813489  .00004923  00000+0  16072-3 0  9994
2 60485  97.3819 214.2206 0003899  60.4428 299.7202 15.32226927 96726
FLOCK 4BE-36            
1 60486U 24149U   26133.53239241  .00010178  00000+0  24382-3 0  9996
2 60486  97.3746 217.5767 0004122  55.3246 304.8389 15.41614532 97015
FLOCK 4BE-25            
1 60487U 24149V   26133.48274543  .00008658  00000+0  23452-3 0  9992
2 60487  97.3800 216.4233 0002721  60.9704 299.1813 15.37906996 96905
FLOCK 4BE-31            
1 60488U 24149W   26133.20190223  .00011116  00000+0  25645-3 0  9994
2 60488  97.3801 218.0080 0003230  66.0368 294.1217 15.42727343 96988
FLOCK 4BE-20            
1 60489U 24149X   26133.16822676  .00009402  00000+0  26087-3 0  9990
2 60489  97.3698 215.0754 0004215  54.7335 305.4304 15.37126804 96836
FLOCK 4BE-23            
1 60490U 24149Y   26133.47569058  .00009227  00000+0  25902-3 0  9998
2 60490  97.3782 215.7406 0004136  61.1196 299.0463 15.36768832 96861
FLOCK 4BE-15            
1 60491U 24149Z   26133.23218763  .00067746  00000+0  11102-2 0  9993
2 60491  97.3696 217.5035 0003796 142.8489 217.3027 15.52237075 96998
FLOCK 4BE-17            
1 60492U 24149AA  26133.18060779  .00010299  00000+0  27105-3 0  9992
2 60492  97.3776 216.3028 0003383  54.1875 305.9684 15.38739598 96874
NUSAT-50 (NANCY ROMAN)  
1 60493U 24149AB  26133.16768408  .00006123  00000+0  21854-3 0  9991
2 60493  97.3790 214.6847 0002394 349.1136  11.0052 15.29233317 96770
FLOCK 4BE-22            
1 60494U 24149AC  26133.45296426  .00009857  00000+0  24832-3 0  9996
2 60494  97.3735 216.7154 0004121  57.1853 302.9789 15.40091852 96954
FLOCK 4BE-34            
1 60495U 24149AD  26133.53547249  .00009612  00000+0  24186-3 0  9999
2 60495  97.3784 217.5980 0004450  66.2778 293.8935 15.40136837 96995
TYCHE                   
1 60496U 24149AE  26133.51010792  .00002855  00000+0  11442-3 0  9999
2 60496  97.3756 211.7918 0003727  64.0559 296.1063 15.25828817 96617
FLOCK 4BE-32            
1 60497U 24149AF  26133.19963713  .00009456  00000+0  23186-3 0  9996
2 60497  97.3723 216.7832 0004375  63.6749 296.4947 15.40930406 96943
NUSAT-48 (HENRIETTA LE*)
1 60498U 24149AG  26133.23199841  .00005618  00000+0  19697-3 0  9993
2 60498  97.3907 214.9108 0004889  56.1695 304.0010 15.29845816 96798
FLOCK 4BE-30            
1 60499U 24149AH  26133.18761529  .00057327  00000+0  10656-2 0  9995
2 60499  97.3782 217.7585 0002252 162.6957 197.4371 15.48711026 96347
NUSAT-49 (KLARA DAN VO*)
1 60500U 24149AJ  26133.21186018  .00005263  00000+0  18245-3 0  9991
2 60500  97.3781 214.7369 0003939  72.3883 287.7788 15.30245503 96780
FLOCK 4BE-11            
1 60501U 24149AK  26133.21332730  .00010443  00000+0  24862-3 0  9994
2 60501  97.3701 216.9924 0004361  61.8115 298.3572 15.41791458 96961
YAM-7                   
1 60504U 24149AN  26133.16824776  .00004950  00000+0  16617-3 0  9992
2 60504  97.3787 213.5736 0004802  71.9678 288.2086 15.31319486 96692
FLOCK 4BE-24            
1 60505U 24149AP  26133.45974936  .00011490  00000+0  27373-3 0  9997
2 60505  97.3719 217.4889 0004525  69.3967 290.7765 15.41746287 97017
LUR-1                   
1 60506U 24149AQ  26133.18511990  .00004665  00000+0  16507-3 0  9998
2 60506  97.3743 212.2793 0005594  78.0598 282.1269 15.29632656 96626
TANAGER-1               
1 60507U 24149AR  26133.24479593  .00009182  00000+0  19939-3 0  9999
2 60507  97.3208 227.3790 0006069  73.0961 287.0952 15.44572197 97640
EAGLEEYE                
1 60508U 24149AS  26133.19342656  .00053585  00000+0  54095-3 0  9991
2 60508  97.3727 224.7668 0001834  49.6959 310.4461 15.65194175 97457
